NORAD_CAT_ID,OBJECT_NAME,OBJECT_TYPE,EPOCH,MEAN_MOTION,ECCENTRICITY,INCLINATION,RA_OF_ASC_NODE,ARG_OF_PERICENTER,MEAN_ANOMALY,BSTAR,MEAN_MOTION_DOT,MEAN_MOTION_DDOT,TLE_LINE0,TLE_LINE1,TLE_LINE2,SEMIMAJOR_AXIS,PERIOD,APOGEE,PERIGEE,DECAYED
53633.0,STARLINK-4593,PAYLOAD,2024-02-26 17:25:32,15.08836279,0.000129,53.2155,314.9511,72.5943,287.519,-5.615e-05,-1.181e-05,0.0,0 STARLINK-4593,1 53633U 22104AX  24057.72606944 -.00001181  00000-0 -56150-4 0  9999,2 53633  53.2155 314.9511 0001290  72.5943 287.5190 15.08836279 83191,6917.892,95.438,540.649,538.864,0.0
53633.0,STARLINK-4593,PAYLOAD,2024-02-26 22:11:41,15.08836693,0.000144,53.2165,314.0601,82.9585,277.157,-4.0363e-05,-9.3e-06,0.0,0 STARLINK-4593,1 53633U 22104AX  24057.92478964 -.00000930  00000-0 -40363-4 0  9990,2 53633  53.2165 314.0601 0001440  82.9585 277.1570 15.08836693 83914,6917.89,95.438,540.752,538.759,0.0
53633.0,STARLINK-4593,PAYLOAD,2024-02-27 02:57:51,15.08840681,0.0001451,53.2159,313.166,75.9435,284.1719,6.3249e-05,7.19e-06,0.0,0 STARLINK-4593,1 53633U 22104AX  24058.12350968  .00000719  00000-0  63249-4 0  9997,2 53633  53.2159 313.1660 0001451  75.9435 284.1719 15.08840681 83948,6917.878,95.438,540.747,538.74,0.0
53633.0,STARLINK-4593,PAYLOAD,2024-02-27 20:27:05,15.08836239,0.0001527,53.2156,309.8934,105.22,254.8961,5.1949e-05,5.39e-06,0.0,0 STARLINK-4593,1 53633U 22104AX  24058.85215265  .00000539  00000-0  51949-4 0  9991,2 53633  53.2156 309.8934 0001527 105.2200 254.8961 15.08836239 83365,6917.892,95.438,540.813,538.701,0.0
53633.0,STARLINK-4593,PAYLOAD,2024-02-27 22:02:29,15.08835825,0.0001501,53.2157,309.5958,105.8961,254.2196,5.2008e-05,5.4e-06,0.0,0 STARLINK-4593,1 53633U 22104AX  24058.91839303  .00000540  00000-0  52008-4 0  9992,2 53633  53.2157 309.5958 0001501 105.8961 254.2196 15.08835825 84063,6917.893,95.438,540.797,538.72,0.0
53633.0,STARLINK-4593,PAYLOAD,2024-02-28 09:10:11,15.08834635,0.0001341,53.216,307.517,85.9485,274.166,6.8304e-05,7.99e-06,0.0,0 STARLINK-4593,1 53633U 22104AX  24059.38207719  .00000799  00000-0  68304-4 0  9996,2 53633  53.2160 307.5170 0001341  85.9485 274.1660 15.08834635 84135,6917.897,95.438,540.689,538.834,0.0
53633.0,STARLINK-4593,PAYLOAD,2024-02-28 21:53:16,15.08844967,0.0001298,53.2151,305.1378,88.7242,271.3899,0.00031945,4.8e-05,0.0,0 STARLINK-4593,1 53633U 22104AX  24059.91199415  .00004800  00000-0  31945-3 0  9995,2 53633  53.2151 305.1378 0001298  88.7242 271.3899 15.08844967 84213,6917.865,95.437,540.628,538.832,0.0
53633.0,STARLINK-4593,PAYLOAD,2024-02-28 23:28:39,15.0884816,0.0001322,53.2155,304.8406,90.7616,269.3528,0.00037818,5.737e-05,0.0,0 STARLINK-4593,1 53633U 22104AX  24059.97823302  .00005737  00000-0  37818-3 0  9995,2 53633  53.2155 304.8406 0001322  90.7616 269.3528 15.08848160 83530,6917.855,95.437,540.635,538.806,0.0
53633.0,STARLINK-4593,PAYLOAD,2024-02-29 15:22:30,15.08840213,0.0001479,53.2167,301.8688,97.377,262.739,0.00013115,1.8e-05,0.0,0 STARLINK-4593,1 53633U 22104AX  24060.64063580  .00001800  00000-0  13115-3 0  9996,2 53633  53.2167 301.8688 0001479  97.3770 262.7390 15.08840213 84322,6917.88,95.438,540.768,538.722,0.0
53633.0,STARLINK-4593,PAYLOAD,2024-02-29 20:08:40,15.08839743,0.00015,53.2166,300.9767,98.6838,261.4324,5.8068e-05,6.36e-06,0.0,0 STARLINK-4593,1 53633U 22104AX  24060.83935551  .00000636  00000-0  58068-4 0  9996,2 53633  53.2166 300.9767 0001500  98.6838 261.4324 15.08839743 83668,6917.881,95.438,540.784,538.708,0.0
53633.0,STARLINK-4593,PAYLOAD,2024-02-29 21:44:03,15.08839505,0.0001487,53.217,300.6793,98.6799,261.4362,8.6085e-05,1.082e-05,0.0,0 STARLINK-4593,1 53633U 22104AX  24060.90559610  .00001082  00000-0  86085-4 0  9998,2 53633  53.2170 300.6793 0001487  98.6799 261.4362 15.08839505 84365,6917.882,95.438,540.776,538.718,0.0
53633.0,STARLINK-4593,PAYLOAD,2024-03-01 08:51:45,15.08841019,0.0001529,53.217,298.5976,91.0076,269.1092,0.00014322,1.992e-05,0.0,0 STARLINK-4593,1 53633U 22104AX  24061.36927586  .00001992  00000-0  14322-3 0  9994,2 53633  53.2170 298.5976 0001529  91.0076 269.1092 15.08841019 84431,6917.877,95.437,540.8,538.685,0.0
53633.0,STARLINK-4593,PAYLOAD,2024-03-01 21:34:50,15.08842079,0.000163,53.2181,296.2191,102.6748,257.4427,5.0856e-05,5.21e-06,0.0,0 STARLINK-4593,1 53633U 22104AX  24061.89919776  .00000521  00000-0  50856-4 0  9994,2 53633  53.2181 296.2191 0001630 102.6748 257.4427 15.08842079 84513,6917.874,95.437,540.867,538.611,0.0
53633.0,STARLINK-4593,PAYLOAD,2024-03-01 23:10:13,15.08844409,0.000149,53.2176,295.921,94.8128,265.3034,4.289e-05,3.95e-06,0.0,0 STARLINK-4593,1 53633U 22104AX  24061.96543634  .00000395  00000-0  42890-4 0  9996,2 53633  53.2176 295.9210 0001490  94.8128 265.3034 15.08844409 83838,6917.867,95.437,540.763,538.701,0.0
53633.0,STARLINK-4593,PAYLOAD,2024-03-02 21:25:37,15.08841684,0.0001434,53.2175,291.7579,90.4638,269.6518,5.6102e-05,6.05e-06,0.0,0 STARLINK-4593,1 53633U 22104AX  24062.89279758  .00000605  00000-0  56102-4 0  9997,2 53633  53.2175 291.7579 0001434  90.4638 269.6518 15.08841684 84663,6917.875,95.437,540.732,538.748,0.0
53633.0,STARLINK-4593,PAYLOAD,2024-03-03 03:47:10,15.08838881,0.0001351,53.2167,290.5652,88.5584,271.5563,1.8364e-05,4e-08,0.0,0 STARLINK-4593,1 53633U 22104AX  24063.15775926  .00000004  00000-0  18364-4 0  9996,2 53633  53.2167 290.5652 0001351  88.5584 271.5563 15.08838881 84015,6917.884,95.438,540.683,538.814,0.0
53633.0,STARLINK-4593,PAYLOAD,2024-03-03 08:33:19,15.08839536,0.0001312,53.2163,289.6747,90.4869,269.6273,2.4675e-05,1.05e-06,0.0,0 STARLINK-4593,1 53633U 22104AX  24063.35647894  .00000105  00000-0  24675-4 0  9994,2 53633  53.2163 289.6747 0001312  90.4869 269.6273 15.08839536 84733,6917.882,95.438,540.654,538.839,0.0
53633.0,STARLINK-4593,PAYLOAD,2024-03-03 19:41:01,15.08842756,0.0001274,53.2163,287.5922,89.9299,270.1839,0.00010663,1.41e-05,0.0,0 STARLINK-4593,1 53633U 22104AX  24063.82015445  .00001410  00000-0  10663-3 0  9998,2 53633  53.2163 287.5922 0001274  89.9299 270.1839 15.08842756 84803,6917.872,95.437,540.618,538.856,0.0
53633.0,STARLINK-4593,PAYLOAD,2024-03-04 00:27:09,15.08855699,0.0001308,53.2163,286.7003,90.9656,269.1486,0.00016783,2.385e-05,0.0,0 STARLINK-4593,1 53633U 22104AX  24064.01886464  .00002385  00000-0  16783-3 0  9998,2 53633  53.2163 286.7003 0001308  90.9656 269.1486 15.08855699 84144,6917.832,95.437,540.602,538.793,0.0
53633.0,STARLINK-4593,PAYLOAD,2024-03-04 08:24:05,15.08849457,0.0001257,53.2165,285.2137,88.3973,271.7163,0.00011654,1.568e-05,0.0,0 STARLINK-4593,1 53633U 22104AX  24064.35006766  .00001568  00000-0  11654-3 0  9998,2 53633  53.2165 285.2137 0001257  88.3973 271.7163 15.08849457 84195,6917.851,95.437,540.586,538.847,0.0
53633.0,STARLINK-4593,PAYLOAD,2024-03-04 21:07:10,15.0884439,0.0001282,53.2162,282.8338,97.5698,262.544,0.00012054,1.631e-05,0.0,0 STARLINK-4593,1 53633U 22104AX  24064.87998810  .00001631  00000-0  12054-3 0  9991,2 53633  53.2162 282.8338 0001282  97.5698 262.5440 15.08844390 84964,6917.867,95.437,540.619,538.845,0.0
53633.0,STARLINK-4593,PAYLOAD,2024-03-05 19:22:35,15.08837217,0.0001339,53.2172,278.6704,95.3509,264.7636,-3.1431e-05,-7.88e-06,0.0,0 STARLINK-4593,1 53633U 22104AX  24065.80735901 -.00000788  00000-0 -31431-4 0  9990,2 53633  53.2172 278.6704 0001339  95.3509 264.7636 15.08837217 84416,6917.889,95.438,540.68,538.828,0.0
53633.0,STARLINK-4593,PAYLOAD,2024-03-06 14:27:13,15.0883765,0.0001148,53.2166,275.1045,84.8949,275.2174,3.6054e-05,2.86e-06,0.0,0 STARLINK-4593,1 53633U 22104AX  24066.60223794  .00000286  00000-0  36054-4 0  9998,2 53633  53.2166 275.1045 0001148  84.8949 275.2174 15.08837650 85223,6917.888,95.438,540.547,538.958,0.0
53633.0,STARLINK-4593,PAYLOAD,2024-03-06 20:48:45,15.08845073,0.0001179,53.2167,273.9161,90.1278,269.985,3.782e-05,3.14e-06,0.0,0 STARLINK-4593,1 53633U 22104AX  24066.86719328  .00000314  00000-0  37820-4 0  9993,2 53633  53.2167 273.9161 0001179  90.1278 269.9850 15.08845073 84574,6917.865,95.437,540.545,538.914,0.0
53633.0,STARLINK-4593,PAYLOAD,2024-03-07 06:21:04,15.08839761,0.0001204,53.2162,272.1294,87.0011,273.1118,1.9832e-05,2.8e-07,0.0,0 STARLINK-4593,1 53633U 22104AX  24067.26463837  .00000028  00000-0  19832-4 0  9994,2 53633  53.2162 272.1294 0001204  87.0011 273.1118 15.08839761 85321,6917.881,95.438,540.579,538.913,0.0
53633.0,STARLINK-4593,PAYLOAD,2024-03-08 06:11:53,15.08830762,0.0001303,53.2172,267.6705,93.7119,266.4022,6.0458e-05,6.74e-06,0.0,0 STARLINK-4593,1 53633U 22104AX  24068.25825342  .00000674  00000-0  60458-4 0  9994,2 53633  53.2172 267.6705 0001303  93.7119 266.4022 15.08830762 84781,6917.909,95.438,540.675,538.872,0.0
53633.0,STARLINK-4593,PAYLOAD,2024-03-08 22:05:43,15.08843598,0.0001244,53.2169,264.6932,89.941,270.1724,8.6505e-05,1.089e-05,0.0,0 STARLINK-4593,1 53633U 22104AX  24068.92064644  .00001089  00000-0  86505-4 0  9990,2 53633  53.2169 264.6932 0001244  89.9410 270.1724 15.08843598 85571,6917.869,95.437,540.595,538.874,0.0
53633.0,STARLINK-4593,PAYLOAD,2024-03-09 12:24:12,15.08843011,0.0001333,53.2155,262.0179,88.9345,271.18,0.00038153,5.79e-05,0.0,0 STARLINK-4593,1 53633U 22104AX  24069.51680891  .00005790  00000-0  38153-3 0  9992,2 53633  53.2155 262.0179 0001333  88.9345 271.1800 15.08843011 85662,6917.871,95.437,540.658,538.814,0.0
53633.0,STARLINK-4593,PAYLOAD,2024-03-10 05:53:26,15.08850701,0.0001243,53.2147,258.7466,89.0224,271.091,0.00028064,4.183e-05,0.0,0 STARLINK-4593,1 53633U 22104AX  24070.24544316  .00004183  00000-0  28064-3 0  9990,2 53633  53.2147 258.7466 0001243  89.0224 271.0910 15.08850701 85083,6917.848,95.437,540.573,538.853,0.0
53633.0,STARLINK-4593,PAYLOAD,2024-03-10 18:36:31,15.08835583,0.0001291,53.2138,256.3668,95.9892,264.1247,-0.00010266,-1.921e-05,0.0,0 STARLINK-4593,1 53633U 22104AX  24070.77536714 -.00001921  00000-0 -10266-3 0  9995,2 53633  53.2138 256.3668 0001291  95.9892 264.1247 15.08835583 85167,6917.894,95.438,540.652,538.866,0.0
